[{"OBJECT_NAME":"STARLINK-4523","OBJECT_ID":"2022-097B","EPOCH":"2026-03-09T10:49:35.599008","MEAN_MOTION":15.08836396,"ECCENTRICITY":0.00012859,"INCLINATION":53.2171,"RA_OF_ASC_NODE":125.1926,"ARG_OF_PERICENTER":92.2224,"MEAN_ANOMALY":267.8915,"EPHEMERIS_TYPE":0,"CLASSIFICATION_TYPE":"U","NORAD_CAT_ID":53389,"ELEMENT_SET_NO":999,"REV_AT_EPOCH":19863,"BSTAR":9.764219e-6,"MEAN_MOTION_DOT":-1.32e-6,"MEAN_MOTION_DDOT":0},{"OBJECT_NAME":"SL-18 R\/B","OBJECT_ID":"2001-007B","EPOCH":"2026-03-09T23:25:11.323200","MEAN_MOTION":15.07301441,"ECCENTRICITY":0.00085554,"INCLINATION":97.6926,"RA_OF_ASC_NODE":87.6817,"ARG_OF_PERICENTER":353.225,"MEAN_ANOMALY":6.886,"EPHEMERIS_TYPE":0,"CLASSIFICATION_TYPE":"U","NORAD_CAT_ID":26703,"ELEMENT_SET_NO":999,"REV_AT_EPOCH":64619,"BSTAR":0.00021543689,"MEAN_MOTION_DOT":3.19e-5,"MEAN_MOTION_DDOT":0}]
